UNKNOWN                 
1 81624U          23006.23816852  .00002830  00000+0  66906-3 0  9999
2 81624  66.9880 200.9594 0088277  36.3124 324.3934 14.53254930483166
UNKNOWN                 
1 81626U          23009.60297463  .00628663  00000+0  23707-1 0  9994
2 81626  70.9802  86.1064 0026596   3.7137 356.4234 15.24294962472391
UNKNOWN                 
1 81640U          23009.09934313  .00000704  00000+0  69574-3 0  9999
2 81640  65.8242 153.9681 0988007 151.0870 214.8774 12.55672357375826
UNKNOWN                 
1 81652U 76077    23004.87656431  .00000474  00000+0  62712-3 0  9993
2 81652 102.1766  21.3198 0379072 232.6433 252.4550 13.41847395999096
UNKNOWN                 
1 81661U          23009.52730221  .00014174  00000+0  34606-2 0  9995
2 81661  98.4288 292.7016 0060567 228.9116 130.6839 14.51597931379748
UNKNOWN                 
1 81667U          23008.98772606  .00002025  00000+0  66892-3 0  9998
2 81667  74.0425 220.2778 0017265  64.4303 295.8633 14.38591602302483
UNKNOWN                 
1 81674U          23009.17700160  .00001048  00000+0  68646-3 0  9997
2 81674  66.8237 165.4781 0033754 278.3010 257.5522 14.05789064463303
UNKNOWN                 
1 81678U          23002.30707157  .00030714  00000+0  32817-2 0  9994
2 81678  65.8296  21.0008 0050288 261.3253 111.5062 14.87727049 52354
UNKNOWN                 
1 81683U          23009.59661528  .00003613  00000+0  10210-2 0  9990
2 81683  81.2249 329.7624 0029022 294.6758  65.1411 14.45282339480970
UNKNOWN                 
1 81693U 73086    23007.89502619  .00000976  00000+0  73900-2 0  9995
2 81693 101.0764 178.3303 0384184 295.9616  60.2338 12.23626357836791
UNKNOWN                 
1 81696U          23009.20366569  .00017182  00000+0  14327-2 0  9998
2 81696  97.4483 275.5601 0188733 213.9764 144.9250 14.85770877353870
UNKNOWN                 
1 81732U          23009.22631516  .00036532  00000+0  34696-2 0  9999
2 81732  65.7344 311.2232 0219332  58.4683 303.7649 14.76896482485824
UNKNOWN                 
1 81745U          23009.25394941  .00002277  00000+0  87620-3 0  9999
2 81745  71.0031 188.1994 0003969  75.1763  97.1440 14.31411236476395
UNKNOWN                 
1 81749U          22362.96444008  .00000238  00000+0  93748-3 0  9995
2 81749  99.6788 169.0612 0368785  50.9483  97.0821 12.77064524424149
UNKNOWN                 
1 81775U          23009.42332455  .00004436  00000+0  19928-2 0  9997
2 81775  82.9283  14.4767 0019995 274.1551  85.7346 14.22115983472540
UNKNOWN                 
1 81779U          22362.38747785 -.00007466  00000+0 -31625+0 0  9996
2 81779  54.2885   0.6838 1744798 202.4535 148.9742  9.25633818380047
UNKNOWN                 
1 81792U          23009.29753872  .00002436  00000+0  96010-3 0  9997
2 81792  65.8282 324.2485 0908730  35.5845 330.2431 13.05016097435410
UNKNOWN                 
1 81794U          23009.06807250  .00044913  00000+0  40284-2 0  9991
2 81794  81.1805 133.8174 0005922 249.7427 110.3154 14.95532073490427
UNKNOWN                 
1 81798U          23008.91245858  .00043015  00000+0  78476-2 0  9994
2 81798  74.0129 337.6941 0041430 306.8105  52.9265 14.65196438431460
UNKNOWN                 
1 81812U          23009.16277919  .00003580  00000+0  24434-1 0  9999
2 81812 103.5668 158.3117 0376476 244.8045 111.3526 12.30008284408804
UNKNOWN                 
1 81813U          23004.42080981  .00003759  00000+0  10658-2 0  9997
2 81813  99.0607 231.6065 0018508  77.1467 283.1789 14.46024691 38782
UNKNOWN                 
1 81816U 77121    23009.40326594  .00001586  00000+0  13029-2 0  9995
2 81816  66.2396  68.5770 0180971 150.5325 210.6098 13.84671581461188
UNKNOWN                 
1 81817U          23009.02085925  .00018133  00000+0  16571-2 0  9997
2 81817  65.7265 277.1065 0279767 206.5902 152.0632 14.69771370488204
UNKNOWN                 
1 81818U          23007.45525103  .00007274  00000+0  16157-2 0  9994
2 81818  65.7535 267.9134 0655617  46.4058 318.9528 13.72777856500518
UNKNOWN                 
1 81819U          23009.18838281  .00001152  00000+0  83202-2 0  9995
2 81819 102.2081  81.6038 0033322 305.2142  54.5806 12.45727804414859
UNKNOWN                 
1 81824U          23009.61558655  .00003899  00000+0  18591-2 0  9992
2 81824  65.8519 333.0918 0050651 209.0505 150.7760 14.19678941472193
UNKNOWN                 
1 81833U          23009.65226446  .00000231  00000+0  81850-3 0  9992
2 81833  90.2603 338.9064 0026265 301.5440  58.3113 12.93134163314446
UNKNOWN                 
1 81838U          23007.78158694  .00004481  00000+0  14520-2 0  9998
2 81838  67.7677 139.5001 0041382 315.3312 193.5577 14.39255334478516
UNKNOWN                 
1 81844U          23008.57528274  .00003545  00000+0  17047-2 0  9995
2 81844  82.9219  65.4229 0082350 148.5854 212.0283 14.16825521470700
UNKNOWN                 
1 81845U          23008.54932514  .00002550  00000+0  34511-3 0  9990
2 81845  97.7533 226.7528 0102296 193.7164 198.7744 14.76254936491343
UNKNOWN                 
1 81864U          23009.06937017  .00000615  00000+0  28626-3 0  9992
2 81864  65.6762  32.4895 0779957 114.4164 254.0255 13.26661028408771
UNKNOWN                 
1 81865U 87062    23009.28965135  .00001874  00000+0  16610-2 0  9999
2 81865  82.8075 129.9928 0070976 150.5302 238.3995 13.83274110460598
UNKNOWN                 
1 81872U          23009.16591527  .00317159  00000+0  14889-1 0  9992
2 81872  61.9789 265.5722 1513346  17.0058 347.6367 12.38277722220473
UNKNOWN                 
1 81873U          23001.91976783  .00003813  00000+0  20962-2 0  9998
2 81873  99.0877  52.4997 0072565 242.0721 117.3090 14.10966420417295
UNKNOWN                 
1 81877U          22353.56931975  .00000334  00000+0  53499-3 0  9993
2 81877  65.9343 104.7603 0074283 253.2027 106.0870 13.60706660979753
UNKNOWN                 
1 81893U 70025    23009.04405489  .00001065  00000+0  12038-2 0  9998
2 81893  99.9606 292.1327 0014946 134.5447 225.6923 13.73027589457233
UNKNOWN                 
1 81899U          23008.65509866  .00000446  00000+0  12076-2 0  9994
2 81899 102.4331 269.7359 0186760 305.5658  52.8164 13.16687490438097
UNKNOWN                 
1 81902U          23009.34271836  .00028469  00000+0  33936-2 0  9992
2 81902  81.6205 231.0656 0249804 313.7986  44.2789 14.64339440482142
UNKNOWN                 
1 81905U          23008.80483872  .00329105  00000+0  72539-2 0  9993
2 81905  61.6584 275.3156 0707619 228.1928 125.6588 14.24288687543036
UNKNOWN                 
1 81921U          23002.14865956  .00000391  00000+0  18773-3 0  9993
2 81921  65.7093 321.3955 0887190 211.6049 142.8677 13.08150985887487
UNKNOWN                 
1 81946U 87079    23008.85678832  .00000055  00000+0  35603-3 0  9998
2 81946  66.4227  47.2485 0669146 148.4715  23.4013 12.42031262415106
UNKNOWN                 
1 81947U          23007.86959213  .00004702  00000+0  55751-3 0  9992
2 81947  66.0808 229.0180 0443016  70.3137 294.5188 14.34166438476644
UNKNOWN                 
1 81964U          23009.45195195  .00000238  00000+0  23562-3 0  9994
2 81964  66.5858  29.2605 0029900  67.5243 292.8997 13.94647597465016
UNKNOWN                 
1 81969U          23009.40026080  .00004397  00000+0  47873-3 0  9991
2 81969  86.6674 249.9595 0012471  55.9605 304.2803 14.87752128280285
UNKNOWN                 
1 81995U          23008.37854935  .00002273  00000+0  56236-3 0  9997
2 81995  65.7558 356.4309 0577323 106.0065 260.5358 13.84565418455193
UNKNOWN                 
1 82039U          23009.62023243  .00014853  00000+0  29950-2 0  9995
2 82039  99.0646  69.2113 0038433  80.0430 280.5102 14.61106427401337
UNKNOWN                 
1 82043U          23009.61876593  .00002219  00000+0  70244-3 0  9999
2 82043  97.9476 246.5810 0259181  33.0829 328.6267 14.23522076421449
UNKNOWN                 
1 82044U          22364.67884811  .00001157  00000+0  12446-2 0  9990
2 82044  99.9202  79.3705 0067141 180.1886 179.9246 13.74857377941951
UNKNOWN                 
1 82051U          23008.91324679  .00004107  00000+0  18209-2 0  9993
2 82051  98.8096  79.6703 0116751 131.1158 230.0168 14.20017451419954
UNKNOWN                 
1 82073U          23009.27698327  .00002846  00000+0  86586-3 0  9993
2 82073  97.6861 186.5817 0238533 280.5979  76.8421 14.27640110422089
UNKNOWN                 
1 82139U          23009.59112786  .00001894  00000+0  11079-2 0  9997
2 82139  99.1040  56.4185 0094056 164.3707 196.0399 14.07373766329464
UNKNOWN                 
1 82162U          23009.34096741  .00003093  00000+0  53619-2 0  9997
2 82162 100.3782 234.7807 0061319 287.3014  72.1412 13.44003988360318
UNKNOWN                 
1 82168U          23008.49628453  .00054973  00000+0  49490-2 0  9994
2 82168  74.0018  88.4014 0015453   3.7130 356.4166 14.95234166331610
UNKNOWN                 
1 82180U          23009.58039949  .00017294  00000+0  36582-2 0  9998
2 82180  65.6629 325.0542 0455619  31.4544 331.2936 14.10251267449112
UNKNOWN                 
1 82187U          23008.42868415  .00039342  00000+0  52662-2 0  9990
2 82187  70.9367  39.7001 0059296 335.0796  24.7498 14.78020746486241
UNKNOWN                 
1 82189U          23003.26238265  .00000293  00000+0  11440-3 0  9996
2 82189  74.0336 216.1821 0017520 305.7393  54.2128 14.33847582 33721
UNKNOWN                 
1 82199U          23005.62314369  .00000481  00000+0  41753-3 0  9998
2 82199  82.9683 318.6120 0036073 197.2711 339.3215 13.83905109461304
UNKNOWN                 
1 82205U          23009.42419308  .00002337  00000+0  58555-3 0  9997
2 82205  63.0038  14.5956 0587712 186.3637 172.9706 13.82553981459693
UNKNOWN                 
1 82223U          23008.31611683  .00002191  00000+0  13739-2 0  9996
2 82223  99.3952 204.3700 0074140  66.3970 294.4958 14.04287815298302
UNKNOWN                 
1 82227U          23006.84868951  .00000083  00000+0  93188-3 0  9993
2 82227 101.9054 339.4030 0003433 299.8482  90.2391 12.42021203508217
